[{"OBJECT_NAME":"STARLINK-3980","OBJECT_ID":"2022-052P","EPOCH":"2026-03-09T19:28:55.019424","MEAN_MOTION":15.08837753,"ECCENTRICITY":0.00013595,"INCLINATION":53.2164,"RA_OF_ASC_NODE":283.5749,"ARG_OF_PERICENTER":102.7487,"MEAN_ANOMALY":257.3657,"EPHEMERIS_TYPE":0,"CLASSIFICATION_TYPE":"U","NORAD_CAT_ID":52611,"ELEMENT_SET_NO":999,"REV_AT_EPOCH":21080,"BSTAR":3.1784786e-5,"MEAN_MOTION_DOT":2.18e-6,"MEAN_MOTION_DDOT":0},{"OBJECT_NAME":"LEMUR-2-NEUROSPICY","OBJECT_ID":"2025-061E","EPOCH":"2026-03-09T21:29:47.005152","MEAN_MOTION":15.13370729,"ECCENTRICITY":0.00155025,"INCLINATION":97.5545,"RA_OF_ASC_NODE":45.3302,"ARG_OF_PERICENTER":239.5457,"MEAN_ANOMALY":120.4243,"EPHEMERIS_TYPE":0,"CLASSIFICATION_TYPE":"U","NORAD_CAT_ID":63355,"ELEMENT_SET_NO":999,"REV_AT_EPOCH":5259,"BSTAR":0.00032487858,"MEAN_MOTION_DOT":5.745e-5,"MEAN_MOTION_DDOT":0}]
